EUTELSAT 8 WEST B       
1 40875U 15039B   25294.76310514 -.00000058  00000+0  00000+0 0  9993
2 40875   0.0702 351.0793 0003894 223.6770  82.4225  1.00271468 37264
EUTELSAT 9B             
1 41310U 16005A   25294.76648515  .00000069  00000+0  00000+0 0  9998
2 41310   0.0656  66.0075 0003702 175.5082  73.8849  1.00271843 35724
EUTELSAT 65 WEST A      
1 41382U 16014A   25294.82316544 -.00000269  00000+0  00000+0 0  9991
2 41382   0.0606  33.9313 0002285 185.5524  42.1808  1.00272160 35146
EUTELSAT 117 WEST B     
1 41589U 16038B   25294.59880691 -.00000005  00000+0  00000+0 0  9997
2 41589   0.0119  88.2363 0000097  95.8249 304.8426  1.00273110 34271
EUTELSAT 172B           
1 42741U 17029B   25294.79881198  .00000002  00000+0  00000+0 0  9990
2 42741   0.0186 175.3417 0000245 260.0326  54.6983  1.00273360 31341
EUTELSAT 7C             
1 44334U 19034B   25294.30789122  .00000055  00000+0  00000+0 0  9997
2 44334   0.0659 185.0176 0003112   6.0169 316.8247  1.00271467  4448
EUTELSAT 5 WEST B       
1 44624U 19067A   25294.76371182 -.00000033  00000+0  00000+0 0  9995
2 44624   0.0698 351.8103 0003359 225.1268  83.4997  1.00277646 22043
EUTELSAT KONNECT        
1 45027U 20005B   25294.19534822  .00000055  00000+0  00000+0 0  9999
2 45027   0.0705  89.4943 0001548 151.3364 226.6039  1.00270371 21934
